NORAD_CAT_ID,OBJECT_NAME,OBJECT_TYPE,EPOCH,MEAN_MOTION,ECCENTRICITY,INCLINATION,RA_OF_ASC_NODE,ARG_OF_PERICENTER,MEAN_ANOMALY,BSTAR,MEAN_MOTION_DOT,MEAN_MOTION_DDOT,TLE_LINE0,TLE_LINE1,TLE_LINE2,SEMIMAJOR_AXIS,PERIOD,APOGEE,PERIGEE,DECAYED
51864.0,STARLINK-3548,PAYLOAD,2022-06-30 14:00:01,15.0884437,0.0001575,53.2136,301.0007,53.6602,218.5291,-0.00088791,-0.00014393,0.0,0 STARLINK-3548,1 51864U 22022N   22181.58334491 -.00014393  00000-0 -88791-3 0  9991,2 51864  53.2136 301.0007 0001575  53.6602 218.5291 15.08844370  1309,6917.8669999999975,95.437,540.822,538.6419999999998,0.0
51864.0,STARLINK-3548,PAYLOAD,2022-06-30 22:00:00,15.08858081,0.0001561,53.2135,299.5042,50.2746,233.5058,-0.0013223,-0.00021281,0.0,0 STARLINK-3548,1 51864U 22022N   22181.91667824 -.00021281  00000-0 -13223-2 0  9998,2 51864  53.2135 299.5042 0001561  50.2746 233.5058 15.08858081  1307,6917.825,95.436,540.77,538.61,0.0
51864.0,STARLINK-3548,PAYLOAD,2022-07-01 14:00:01,15.08856244,0.0001626,53.2139,296.5116,52.7533,254.2411,-0.00081367,-0.0001322,0.0,0 STARLINK-3548,1 51864U 22022N   22182.58334491 -.00013220  00000-0 -81367-3 0  9992,2 51864  53.2139 296.5116 0001626  52.7533 254.2411 15.08856244 19786,6917.831,95.437,540.821,538.571,0.0
51864.0,STARLINK-3548,PAYLOAD,2022-07-01 22:00:00,15.08871113,0.0001599,53.2138,295.0148,50.6342,267.9644,-0.0018083,-0.00028976,0.0,0 STARLINK-3548,1 51864U 22022N   22182.91667824 -.00028976  00000-0 -18083-2 0  9996,2 51864  53.2138 295.0148 0001599  50.6342 267.9644 15.08871113  1308,6917.785,95.436,540.756,538.544,0.0
51864.0,STARLINK-3548,PAYLOAD,2022-07-02 14:00:01,15.08854732,0.0001719,53.214,292.0223,54.1614,287.6881,-0.0018161,-0.00029087,0.0,0 STARLINK-3548,1 51864U 22022N   22183.58334491 -.00029087  00000-0 -18161-2 0  9992,2 51864  53.2140 292.0223 0001719  54.1614 287.6881 15.08854732  1307,6917.835,95.437,540.89,538.511,0.0
51864.0,STARLINK-3548,PAYLOAD,2022-07-02 22:00:00,15.08870913,0.0001686,53.2137,290.5253,52.8896,300.5696,-0.0015136,-0.00024317,0.0,0 STARLINK-3548,1 51864U 22022N   22183.91667824 -.00024317  00000-0 -15136-2 0  9998,2 51864  53.2137 290.5253 0001686  52.8896 300.5696 15.08870913 19980,6917.786,95.436,540.817,538.485,0.0
51864.0,STARLINK-3548,PAYLOAD,2022-07-03 14:00:01,15.08877623,0.0001676999999999,53.2138,287.533,53.5818,323.1177,-0.0045817,-0.00072547,0.0,0 STARLINK-3548,1 51864U 22022N   22184.58334491 -.00072547  00000-0 -45817-2 0  9990,2 51864  53.2138 287.5330 0001677  53.5818 323.1177 15.08877623  1302,6917.765,95.435,540.7909999999998,538.47,0.0
51864.0,STARLINK-3548,PAYLOAD,2022-07-03 22:00:00,15.08837798,0.0001631999999999,53.2133,286.0358,53.8645,334.4424,-0.0032349,-0.00051402,0.0,0 STARLINK-3548,1 51864U 22022N   22184.91667824 -.00051402  00000-0 -32349-2 0  9999,2 51864  53.2133 286.0358 0001632  53.8645 334.4424 15.08837798  1302,6917.887,95.438,540.881,538.623,0.0
51864.0,STARLINK-3548,PAYLOAD,2022-07-04 14:00:01,15.08815844,0.0001696999999999,53.2132,283.0439,55.7838,355.6573,-0.00033595,-5.627e-05,0.0,0 STARLINK-3548,1 51864U 22022N   22185.58334491 -.00005627  00000-0 -33595-3 0  9997,2 51864  53.2132 283.0439 0001697  55.7838 355.6573 15.08815844  1302,6917.954000000002,95.439,540.993,538.645,0.0
51864.0,STARLINK-3548,PAYLOAD,2022-07-04 22:00:00,15.08841686,0.0001626999999999,53.2127,281.5465,55.7054,7.3061,-0.0017453,-0.00027959,0.0,0 STARLINK-3548,1 51864U 22022N   22185.91667824 -.00027959  00000-0 -17453-2 0  9999,2 51864  53.2127 281.5465 0001627  55.7054   7.3061 15.08841686  1307,6917.875,95.437,540.866,538.615,0.0
51864.0,STARLINK-3548,PAYLOAD,2022-07-05 06:00:00,15.08824269,0.000155,53.2134,280.0491,62.9567,11.6373,0.0017219999999999,0.00027212,0.0,0 STARLINK-3548,1 51864U 22022N   22186.25001157  .00027212  00000-0  17220-2 0  9990,2 51864  53.2134 280.0491 0001550  62.9567  11.6373 15.08824269 20349,6917.928000000001,95.439,540.866,538.721,0.0
51864.0,STARLINK-3548,PAYLOAD,2022-07-05 14:00:01,15.08833456,0.0001691,53.2138,278.5545,56.0487,30.1363,0.00023433,3.443e-05,0.0,0 STARLINK-3548,1 51864U 22022N   22186.58334491  .00003443  00000-0  23433-3 0  9990,2 51864  53.2138 278.5545 0001691  56.0487  30.1363 15.08833456  1304,6917.9,95.438,540.935,538.596,0.0
51864.0,STARLINK-3548,PAYLOAD,2022-07-05 22:00:00,15.08854802,0.0001609,53.2142,277.057,56.6235,41.1454,-0.0018253,-0.00029232,0.0,0 STARLINK-3548,1 51864U 22022N   22186.91667824 -.00029232  00000-0 -18253-2 0  9995,2 51864  53.2142 277.0570 0001609  56.6235  41.1454 15.08854802 20444,6917.835,95.437,540.813,538.587,0.0
51864.0,STARLINK-3548,PAYLOAD,2022-07-06 14:00:01,15.08842579,0.0001720999999999,53.2141,274.065,55.9296,65.0456,0.00052999,8.157e-05,0.0,0 STARLINK-3548,1 51864U 22022N   22187.58334491  .00008157  00000-0  52999-3 0  9997,2 51864  53.2141 274.0650 0001721  55.9296  65.0456 15.08842579 20549,6917.873000000001,95.437,540.928,538.547,0.0
51864.0,STARLINK-3548,PAYLOAD,2022-07-06 22:00:00,15.0886988,0.0001685,53.2139,272.5673,57.7535,74.8217,-0.0043684,-0.00069201,0.0,0 STARLINK-3548,1 51864U 22022N   22187.91667824 -.00069201  00000-0 -43684-2 0  9992,2 51864  53.2139 272.5673 0001685  57.7535  74.8217 15.08869880  1309,6917.7890000000025,95.436,540.82,538.488,0.0
51864.0,STARLINK-3548,PAYLOAD,2022-07-07 11:43:23,15.08840162,0.0001753,53.2143,269.9996,65.3559,294.7616,0.00013761,1.903e-05,0.0,0 STARLINK-3548,1 51864U 22022N   22188.48846824  .00001903  00000-0  13761-3 0  9991,2 51864  53.2143 269.9996 0001753  65.3559 294.7616 15.08840162 20689,6917.88,95.438,540.9580000000002,538.5319999999998,0.0
51864.0,STARLINK-3548,PAYLOAD,2022-07-07 22:00:00,15.08851549,0.0001764999999999,53.2144,268.0776,58.2328,109.115,-0.0016343,-0.00026212,0.0,0 STARLINK-3548,1 51864U 22022N   22188.91667824 -.00026212  00000-0 -16343-2 0  9990,2 51864  53.2144 268.0776 0001765  58.2328 109.1150 15.08851549  1305,6917.845,95.437,540.931,538.489,0.0
51864.0,STARLINK-3548,PAYLOAD,2022-07-08 08:23:23,15.08854908,0.0001757,53.2147,266.1339,57.3596,302.7566,0.0002772,4.128e-05,0.0,0 STARLINK-3548,1 51864U 22022N   22189.34957994  .00004128  00000-0  27720-3 0  9990,2 51864  53.2147 266.1339 0001757  57.3596 302.7566 15.08854908 20811,6917.835,95.437,540.915,538.484,0.0
51864.0,STARLINK-3548,PAYLOAD,2022-07-08 14:00:01,15.08868935,0.0001875,53.2147,265.0858,53.9733,136.6167,-0.00048302,-7.973e-05,0.0,0 STARLINK-3548,1 51864U 22022N   22189.58334491 -.00007973  00000-0 -48302-3 0  9999,2 51864  53.2147 265.0858 0001875  53.9733 136.6167 15.08868935  1300,6917.792,95.436,540.9540000000002,538.36,0.0
51864.0,STARLINK-3548,PAYLOAD,2022-07-08 22:00:01,15.08874016,0.0001671,53.2148,263.5877,54.5049,147.7773,-0.0017339,-0.00027803,0.0,0 STARLINK-3548,1 51864U 22022N   22189.91668981 -.00027803  00000-0 -17339-2 0  9999,2 51864  53.2148 263.5877 0001671  54.5049 147.7773 15.08874016  1309,6917.776,95.435,540.797,538.485,0.0
51864.0,STARLINK-3548,PAYLOAD,2022-07-09 14:00:01,15.08780288,0.0001599,53.2152,260.5963,45.003,180.4211,0.00018798,2.7e-05,0.0,0 STARLINK-3548,1 51864U 22022N   22190.58334491  .00002700  00000-0  18798-3 0  9998,2 51864  53.2152 260.5963 0001599  45.0030 180.4211 15.08780288  1309,6918.063,95.441,541.034,538.822,0.0
51864.0,STARLINK-3548,PAYLOAD,2022-07-09 20:00:01,15.08796395,0.0001493,53.215,259.4731,45.2741,98.7903,-0.0017477,-0.00027962,0.0,0 STARLINK-3548,1 51864U 22022N   22190.83334491 -.00027962  00000-0 -17477-2 0  9997,2 51864  53.2150 259.4731 0001493  45.2741  98.7903 15.08796395  1306,6918.014,95.44,540.9119999999998,538.846,0.0
51864.0,STARLINK-3548,PAYLOAD,2022-07-10 14:00:01,15.08798539,0.0001672,53.2153,256.1075,46.4251,213.6106,0.00244,0.00038714,0.0,0 STARLINK-3548,1 51864U 22022N   22191.58334491  .00038714  00000-0  24400-2 0  9999,2 51864  53.2153 256.1075 0001672  46.4251 213.6106 15.08798539 21141,6918.007,95.44,541.029,538.715,0.0
51864.0,STARLINK-3548,PAYLOAD,2022-07-10 22:00:00,15.08825331,0.0001499,53.2153,254.6096,49.8206,221.7799,-0.00061193,-0.0001001,0.0,0 STARLINK-3548,1 51864U 22022N   22191.91667824 -.00010010  00000-0 -61193-3 0  9997,2 51864  53.2153 254.6096 0001499  49.8206 221.7799 15.08825331  1306,6917.925,95.438,540.827,538.753,0.0
51864.0,STARLINK-3548,PAYLOAD,2022-07-11 06:00:00,15.08842108,0.0001481,53.2153,253.1134,53.6317,229.5413,-0.00053061,-8.723e-05,0.0,0 STARLINK-3548,1 51864U 22022N   22192.25001157 -.00008723  00000-0 -53061-3 0  9999,2 51864  53.2153 253.1134 0001481  53.6317 229.5413 15.08842108 21245,6917.874,95.437,540.763,538.714,0.0
51864.0,STARLINK-3548,PAYLOAD,2022-07-11 14:00:01,15.08813362,0.0001654,53.2149,251.6186,46.3167,248.4526,0.0026414,0.0004197,0.0,0 STARLINK-3548,1 51864U 22022N   22192.58334491  .00041970  00000-0  26414-2 0  9995,2 51864  53.2149 251.6186 0001654  46.3167 248.4526 15.08813362  1304,6917.962,95.439,540.971,538.683,0.0
51864.0,STARLINK-3548,PAYLOAD,2022-07-11 22:00:00,15.08835873,0.0001482,53.2147,250.1206,50.7588,255.5952,5.2695e-05,5.51e-06,0.0,0 STARLINK-3548,1 51864U 22022N   22192.91667824  .00000551  00000-0  52695-4 0  9993,2 51864  53.2147 250.1206 0001482  50.7588 255.5952 15.08835873  1307,6917.893,95.438,540.783,538.7330000000002,0.0
51864.0,STARLINK-3548,PAYLOAD,2022-07-12 14:00:01,15.0883188,0.0001643,53.2141,247.1296,46.7961,282.765,0.0029465,0.00046908,0.0,0 STARLINK-3548,1 51864U 22022N   22193.58334491  .00046908  00000-0  29465-2 0  9991,2 51864  53.2141 247.1296 0001643  46.7961 282.7650 15.08831880 21443,6917.905,95.438,540.9069999999998,538.634,0.0
51864.0,STARLINK-3548,PAYLOAD,2022-07-12 22:00:00,15.08853491,0.0001494,53.2138,245.6315,52.083,289.0912,0.00094349,0.00014765,0.0,0 STARLINK-3548,1 51864U 22022N   22193.91667824  .00014765  00000-0  94349-3 0  9997,2 51864  53.2138 245.6315 0001494  52.0830 289.0912 15.08853491  1309,6917.839,95.437,540.738,538.6709999999998,0.0
